NORAD_CAT_ID,OBJECT_NAME,OBJECT_TYPE,EPOCH,MEAN_MOTION,ECCENTRICITY,INCLINATION,RA_OF_ASC_NODE,ARG_OF_PERICENTER,MEAN_ANOMALY,BSTAR,MEAN_MOTION_DOT,MEAN_MOTION_DDOT,TLE_LINE0,TLE_LINE1,TLE_LINE2,SEMIMAJOR_AXIS,PERIOD,APOGEE,PERIGEE,DECAYED
55274.0,STARLINK-5236,PAYLOAD,2024-01-11 21:53:09,14.98322119,0.0002472,69.9989,210.8835,279.8644,80.2236,0.00025377,2.936e-05,0.0,0 STARLINK-5236,1 55274U 23010F   24011.91191382  .00002936  00000-0  25377-3 0  9998,2 55274  69.9989 210.8835 0002472 279.8644  80.2236 14.98322119 55277,6950.217,96.108,573.8,570.364,0.0
55274.0,STARLINK-5236,PAYLOAD,2024-01-12 12:18:19,14.98352983,0.0003937,69.9983,209.3671,280.8321,79.2395,0.00028821,3.35e-05,0.0,0 STARLINK-5236,1 55274U 23010F   24012.51272627  .00003350  00000-0  28821-3 0  9995,2 55274  69.9983 209.3671 0003937 280.8321  79.2395 14.98352983 55044,6950.122,96.106,574.723,569.251,0.0
55274.0,STARLINK-5236,PAYLOAD,2024-01-12 13:54:26,14.98367027,0.0002201,69.9993,209.2009,278.8777,81.2133,0.00046035,5.409e-05,0.0,0 STARLINK-5236,1 55274U 23010F   24012.57947340  .00005409  00000-0  46035-3 0  9996,2 55274  69.9993 209.2009 0002201 278.8777  81.2133 14.98367027 55378,6950.078,96.105,573.473,570.414,0.0
55274.0,STARLINK-5236,PAYLOAD,2024-01-12 21:55:09,14.98329771,0.0002426,69.9994,208.3592,271.9773,88.1108,2.3886e-05,1.92e-06,0.0,0 STARLINK-5236,1 55274U 23010F   24012.91330429  .00000192  00000-0  23886-4 0  9992,2 55274  69.9994 208.3592 0002426 271.9773  88.1108 14.98329771 55423,6950.194,96.107,573.745,570.372,0.0
55274.0,STARLINK-5236,PAYLOAD,2024-01-12 23:31:17,14.98330223,0.0002458,69.9994,208.1909,277.3834,82.7045,2.765e-05,2.37e-06,0.0,0 STARLINK-5236,1 55274U 23010F   24012.98006405  .00000237  00000-0  27650-4 0  9996,2 55274  69.9994 208.1909 0002458 277.3834  82.7045 14.98330223 55116,6950.192,96.107,573.766,570.349,0.0
55274.0,STARLINK-5236,PAYLOAD,2024-01-13 13:56:30,14.98332448,0.0002131,70.0001,206.6767,274.4571,85.6344,-8.6474e-05,-1.125e-05,0.0,0 STARLINK-5236,1 55274U 23010F   24013.58090438 -.00001125  00000-0 -86474-4 0  9990,2 55274  70.0001 206.6767 0002131 274.4571  85.6344 14.98332448 55527,6950.185,96.107,573.531,570.569,0.0
55274.0,STARLINK-5236,PAYLOAD,2024-01-14 12:22:22,14.98351313,0.0002047,70.0002,204.3203,272.5521,87.5403,-0.00042283,-5.137e-05,0.0,0 STARLINK-5236,1 55274U 23010F   24014.51553565 -.00005137  00000-0 -42283-3 0  9995,2 55274  70.0002 204.3203 0002047 272.5521  87.5403 14.98351313 55347,6950.127,96.106,573.415,570.569,0.0
55274.0,STARLINK-5236,PAYLOAD,2024-01-14 13:58:30,14.98346767,0.0002327,70.0002,204.1525,270.891,89.1983,-0.0003695,-4.501e-05,0.0,0 STARLINK-5236,1 55274U 23010F   24014.58229553 -.00004501  00000-0 -36950-3 0  9997,2 55274  70.0002 204.1525 0002327 270.8910  89.1983 14.98346767 55670,6950.141,96.106,573.623,570.389,0.0
55274.0,STARLINK-5236,PAYLOAD,2024-01-14 21:59:10,14.98344643,0.0002249,70.0002,203.3109,270.1093,89.9808,-0.00032631,-3.985e-05,0.0,0 STARLINK-5236,1 55274U 23010F   24014.91609288 -.00003985  00000-0 -32631-3 0  9998,2 55274  70.0002 203.3109 0002249 270.1093  89.9808 14.98344643 55728,6950.148,96.106,573.576,570.45,0.0
55274.0,STARLINK-5236,PAYLOAD,2024-01-15 12:24:23,14.98327303,0.0002405,69.9999,201.7952,276.8903,83.1983,3.7123e-05,3.5e-06,0.0,0 STARLINK-5236,1 55274U 23010F   24015.51693599  .00000350  00000-0  37123-4 0  9996,2 55274  69.9999 201.7952 0002405 276.8903  83.1983 14.98327303 55493,6950.201,96.107,573.738,570.395,0.0
55274.0,STARLINK-5236,PAYLOAD,2024-01-15 14:00:31,14.98327371,0.0002401,69.9999,201.6268,276.5012,83.5873,3.6762e-05,3.46e-06,0.0,0 STARLINK-5236,1 55274U 23010F   24015.58369600  .00000346  00000-0  36762-4 0  9999,2 55274  69.9999 201.6268 0002401 276.5012  83.5873 14.98327371 55820,6950.201,96.107,573.735,570.397,0.0
55274.0,STARLINK-5236,PAYLOAD,2024-01-15 20:25:03,14.98328797,0.0002359,70.0,200.9537,275.3965,84.6924,5.2503e-05,5.34e-06,0.0,0 STARLINK-5236,1 55274U 23010F   24015.85073494  .00000534  00000-0  52503-4 0  9992,2 55274  70.0000 200.9537 0002359 275.3965  84.6924 14.98328797 55869,6950.197,96.107,573.701,570.422,0.0
55274.0,STARLINK-5236,PAYLOAD,2024-01-16 12:26:24,14.98326763,0.0002317,70.0001,199.2703,275.486,84.6034,1.4576e-05,8.1e-07,0.0,0 STARLINK-5236,1 55274U 23010F   24016.51833809  .00000081  00000-0  14576-4 0  9995,2 55274  70.0001 199.2703 0002317 275.4860  84.6034 14.98326763 55643,6950.203,96.107,573.678,570.458,0.0
55274.0,STARLINK-5236,PAYLOAD,2024-01-16 14:02:32,14.98326258,0.0002341,70.0,199.102,276.2402,83.8491,7.4395e-06,-4e-08,0.0,0 STARLINK-5236,1 55274U 23010F   24016.58509872 -.00000004  00000-0  74395-5 0  9994,2 55274  70.0000 199.1020 0002341 276.2402  83.8491 14.98326258 55974,6950.204,96.107,573.697,570.442,0.0
55274.0,STARLINK-5236,PAYLOAD,2024-01-16 22:03:12,14.98327559,0.0002342,70.0001,198.2605,276.7996,83.2897,2.0588e-05,1.53e-06,0.0,0 STARLINK-5236,1 55274U 23010F   24016.91889811  .00000153  00000-0  20588-4 0  9993,2 55274  70.0001 198.2605 0002342 276.7996  83.2897 14.98327559 56024,6950.2,96.107,573.693,570.438,0.0
55274.0,STARLINK-5236,PAYLOAD,2024-01-17 12:28:24,14.98339706,0.0002443,69.9999,196.7458,276.738,83.3501,7.8629e-05,8.46e-06,0.0,0 STARLINK-5236,1 55274U 23010F   24017.51972724  .00000846  00000-0  78629-4 0  9994,2 55274  69.9999 196.7458 0002443 276.7380  83.3501 14.98339706 55798,6950.163,96.106,573.726,570.33,0.0
55274.0,STARLINK-5236,PAYLOAD,2024-01-17 14:04:32,14.98339754,0.0002445,69.9999,196.5775,276.7212,83.3669,7.7953e-05,8.38e-06,0.0,0 STARLINK-5236,1 55274U 23010F   24017.58648683  .00000838  00000-0  77953-4 0  9995,2 55274  69.9999 196.5775 0002445 276.7212  83.3669 14.98339754 56120,6950.163,96.106,573.727,570.328,0.0
55274.0,STARLINK-5236,PAYLOAD,2024-01-17 22:05:12,14.98341019,0.0002442,70.0001,195.736,277.1521,82.936,8.6663e-05,9.42e-06,0.0,0 STARLINK-5236,1 55274U 23010F   24017.92028372  .00000942  00000-0  86663-4 0  9994,2 55274  70.0001 195.7360 0002442 277.1521  82.9360 14.98341019 56178,6950.159,96.106,573.721,570.327,0.0
55274.0,STARLINK-5236,PAYLOAD,2024-01-18 12:30:25,14.98326549,0.0002309,70.0005,194.2215,279.5567,80.5331,-1.1283e-05,-2.27e-06,0.0,0 STARLINK-5236,1 55274U 23010F   24018.52113424 -.00000227  00000-0 -11283-4 0  9998,2 55274  70.0005 194.2215 0002309 279.5567  80.5331 14.98326549 55940,6950.204,96.107,573.673,570.464,0.0
55274.0,STARLINK-5236,PAYLOAD,2024-01-18 14:06:34,14.98326001,0.0002326,70.0005,194.0531,278.684,81.4056,-1.9705e-05,-3.28e-06,0.0,0 STARLINK-5236,1 55274U 23010F   24018.58789479 -.00000328  00000-0 -19705-4 0  9992,2 55274  70.0005 194.0531 0002326 278.6840  81.4056 14.98326001 56276,6950.205,96.107,573.687,570.454,0.0
55274.0,STARLINK-5236,PAYLOAD,2024-01-18 20:31:06,14.98322813,0.0002387,70.0005,193.38,277.417,82.6717,-5.7773e-05,-7.82e-06,0.0,0 STARLINK-5236,1 55274U 23010F   24018.85493839 -.00000782  00000-0 -57773-4 0  9995,2 55274  70.0005 193.3800 0002387 277.4170  82.6717 14.98322813 56316,6950.215,96.107,573.739,570.421,0.0
55274.0,STARLINK-5236,PAYLOAD,2024-01-19 12:32:26,14.98332285,0.0002274,70.0009,191.6975,266.2392,93.8507,-7.4235e-05,-9.79e-06,0.0,0 STARLINK-5236,1 55274U 23010F   24019.52253205 -.00000979  00000-0 -74235-4 0  9991,2 55274  70.0009 191.6975 0002274 266.2392  93.8507 14.98332285 56091,6950.186,96.107,573.631,570.47,0.0
55274.0,STARLINK-5236,PAYLOAD,2024-01-19 14:08:34,14.98332252,0.0002458,70.0008,191.5293,274.6561,85.4317,-8.1296e-05,-1.063e-05,0.0,0 STARLINK-5236,1 55274U 23010F   24019.58929239 -.00001063  00000-0 -81296-4 0  9994,2 55274  70.0008 191.5293 0002458 274.6561  85.4317 14.98332252 56424,6950.186,96.107,573.759,570.343,0.0
55274.0,STARLINK-5236,PAYLOAD,2024-01-19 20:33:07,14.98333004,0.000241,70.001,190.8564,274.1785,85.9099,-9.4373e-05,-1.219e-05,0.0,0 STARLINK-5236,1 55274U 23010F   24019.85633186 -.00001219  00000-0 -94373-4 0  9990,2 55274  70.0010 190.8564 0002410 274.1785  85.9099 14.98333004 56463,6950.184,96.107,573.724,570.374,0.0
55274.0,STARLINK-5236,PAYLOAD,2024-01-20 14:10:35,14.98323474,0.0002578,70.0008,189.0047,275.3233,84.7632,4.428e-05,4.35e-06,0.0,0 STARLINK-5236,1 55274U 23010F   24020.59069414  .00000435  00000-0  44280-4 0  9999,2 55274  70.0008 189.0047 0002578 275.3233  84.7632 14.98323474 56574,6950.213,96.107,573.87,570.286,0.0
55274.0,STARLINK-5236,PAYLOAD,2024-01-20 18:59:00,14.98323469,0.0002579,70.0009,188.4997,274.8618,85.2247,4.0821e-05,3.94e-06,0.0,0 STARLINK-5236,1 55274U 23010F   24020.79097498  .00000394  00000-0  40821-4 0  9995,2 55274  70.0009 188.4997 0002579 274.8618  85.2247 14.98323469 56284,6950.213,96.107,573.871,570.286,0.0
55274.0,STARLINK-5236,PAYLOAD,2024-01-20 20:35:08,14.98323873,0.0002631,70.0008,188.3312,276.7263,83.3597,4.0492e-05,3.9e-06,0.0,0 STARLINK-5236,1 55274U 23010F   24020.85773502  .00000390  00000-0  40492-4 0  9999,2 55274  70.0008 188.3312 0002631 276.7263  83.3597 14.98323873 56612,6950.212,96.107,573.905,570.248,0.0
55274.0,STARLINK-5236,PAYLOAD,2024-01-21 19:01:00,14.98330469,0.0002659,70.0008,185.975,275.5617,84.5239,2.2197e-05,1.72e-06,0.0,0 STARLINK-5236,1 55274U 23010F   24021.79237259  .00000172  00000-0  22197-4 0  9997,2 55274  70.0008 185.9750 0002659 275.5617  84.5239 14.98330469 56436,6950.191,96.107,573.904,570.208,0.0
55274.0,STARLINK-5236,PAYLOAD,2024-01-21 20:37:09,14.98330807,0.0002663,70.0009,185.8068,275.8124,84.2731,2.5451e-05,2.11e-06,0.0,0 STARLINK-5236,1 55274U 23010F   24021.85913224  .00000211  00000-0  25451-4 0  9997,2 55274  70.0009 185.8068 0002663 275.8124  84.2731 14.98330807 56765,6950.19,96.107,573.906,570.205,0.0
55274.0,STARLINK-5236,PAYLOAD,2024-01-22 19:03:01,14.98329585,0.0002643,70.0009,183.4502,273.7977,86.2879,3.4359e-05,3.17e-06,0.0,0 STARLINK-5236,1 55274U 23010F   24022.79377284  .00000317  00000-0  34359-4 0  9995,2 55274  70.0009 183.4502 0002643 273.7977  86.2879 14.98329585 56589,6950.194,96.107,573.896,570.222,0.0
